[{"OBJECT_NAME":"STARLINK-32699","OBJECT_ID":"2024-254W","EPOCH":"2026-03-09T03:38:47.494176","MEAN_MOTION":15.27591918,"ECCENTRICITY":0.00015311,"INCLINATION":43.0016,"RA_OF_ASC_NODE":22.6216,"ARG_OF_PERICENTER":250.0738,"MEAN_ANOMALY":109.9949,"EPHEMERIS_TYPE":0,"CLASSIFICATION_TYPE":"U","NORAD_CAT_ID":62482,"ELEMENT_SET_NO":999,"REV_AT_EPOCH":6738,"BSTAR":0.0013886226,"MEAN_MOTION_DOT":0.00038162,"MEAN_MOTION_DDOT":0},{"OBJECT_NAME":"OBJECT D","OBJECT_ID":"2021-102D","EPOCH":"2026-03-09T14:47:14.426880","MEAN_MOTION":15.2846442,"ECCENTRICITY":0.0009157,"INCLINATION":97.3342,"RA_OF_ASC_NODE":112.2633,"ARG_OF_PERICENTER":187.6206,"MEAN_ANOMALY":172.4897,"EPHEMERIS_TYPE":0,"CLASSIFICATION_TYPE":"U","NORAD_CAT_ID":49398,"ELEMENT_SET_NO":999,"REV_AT_EPOCH":23880,"BSTAR":0.00046011,"MEAN_MOTION_DOT":0.00012697,"MEAN_MOTION_DDOT":0}]
